{
"type": "FeatureCollection",
"name": "kantor_polisi",
"crs": { "type": "name", "properties": { "name": "urn:ogc:def:crs:OGC:1.3:CRS84" } },
"features": [
{ "type": "Feature", "properties": { "full_id": "w293512524", "osm_id": "293512524", "osm_type": "way", "amenity": "police", "name": "Polsek Tugu", "capacity_p": "100-250", "building_s": "confined_masonry", "building_r": "tile", "building_m": "brick", "building_f": "ceramics", "building_c": "good", "building": "police", "addr_full": "Jalan Walisongo No.4", "addr_city": "Semarang", "layer": "police", "path": "D:/OSIG ASIK/police.shp" }, "geometry": { "type": "Point", "coordinates": [ 110.36033093459335, -6.98629309606366 ] } },
{ "type": "Feature", "properties": { "full_id": "w293512732", "osm_id": "293512732", "osm_type": "way", "amenity": "police", "name": "Polsek Semarang Barat", "capacity_p": "250-500", "building_s": "confined_masonry", "building_r": "tile", "building_m": "brick", "building_f": "ceramics", "building_c": "good", "building": "police", "addr_full": "Jalan Ronggolawe Selatan No. 1", "addr_city": "Semarang", "layer": "police", "path": "D:/OSIG ASIK/police.shp" }, "geometry": { "type": "Point", "coordinates": [ 110.388531093820603, -6.98233269148764 ] } },
{ "type": "Feature", "properties": { "full_id": "w340418192", "osm_id": "340418192", "osm_type": "way", "amenity": "police", "name": "Polsek Semarang Utara", "capacity_p": "100-250", "building_s": "confined_masonry", "building_r": "tile", "building_m": "brick", "building_f": "ceramics", "building_c": "good", "building": "police", "addr_full": "Jalan Letjen Suprapto", "addr_city": "Semarang", "layer": "police", "path": "D:/OSIG ASIK/police.shp" }, "geometry": { "type": "Point", "coordinates": [ 110.429653138311025, -6.968271557125368 ] } },
{ "type": "Feature", "properties": { "full_id": "w341381434", "osm_id": "341381434", "osm_type": "way", "amenity": "police", "name": "Polsek Semarang Selatan", "capacity_p": "250-500", "building_s": "confined_masonry", "building_r": "tile", "building_m": "brick", "building_f": "ceramics", "building_c": "good", "building": "police", "addr_full": "Jalan Lamper Tengah XIV", "addr_city": "Semarang", "layer": "police", "path": "D:/OSIG ASIK/police.shp" }, "geometry": { "type": "Point", "coordinates": [ 110.44579685, -7.0063246 ] } },
{ "type": "Feature", "properties": { "full_id": "w342108242", "osm_id": "342108242", "osm_type": "way", "amenity": "police", "name": "Polsek Gajahmungkur", "capacity_p": "100-250", "building_s": "confined_masonry", "building_r": "tile", "building_m": "brick", "building_f": "ceramics", "building_c": "good", "building": "police", "addr_full": "Jalan Sultan Agung No. 103", "addr_city": "Semarang", "layer": "police", "path": "D:/OSIG ASIK/police.shp" }, "geometry": { "type": "Point", "coordinates": [ 110.41821085, -7.0166902 ] } },
{ "type": "Feature", "properties": { "full_id": "w342251036", "osm_id": "342251036", "osm_type": "way", "amenity": "police", "name": "Polsek Candisari", "capacity_p": "100-250", "building_s": "confined_masonry", "building_r": "tile", "building_m": "brick", "building_f": "ceramics", "building_c": "good", "building": "police", "addr_full": "Jalan Dr Wahidin no 45", "addr_city": "Semarang", "layer": "police", "path": "D:/OSIG ASIK/police.shp" }, "geometry": { "type": "Point", "coordinates": [ 110.42815302009781, -7.016669555126364 ] } },
{ "type": "Feature", "properties": { "full_id": "w534388233", "osm_id": "534388233", "osm_type": "way", "amenity": "police", "name": "Polsek Genuk", "capacity_p": "100-250", "building_s": "confined_masonry", "building_r": "tile", "building_m": "brick", "building_f": "ceramics", "building_c": "good", "building": "police", "addr_full": "Jalan Kaligawe Raya", "addr_city": "Semarang", "layer": "police", "path": "D:/OSIG ASIK/police.shp" }, "geometry": { "type": "Point", "coordinates": [ 110.476212425222258, -6.953544439231932 ] } },
{ "type": "Feature", "properties": { "full_id": "w561207871", "osm_id": "561207871", "osm_type": "way", "amenity": "police", "name": "Polsekta Semarang Tengah", "capacity_p": "100-250", "building_s": "confined_masonry", "building_r": "tile", "building_m": "brick", "building_f": "ceramics", "building_c": "good", "building": "police", "addr_full": "Jalan Bimbingan 41-42 Semarang 50135", "addr_city": "Semarang", "layer": "police", "path": "D:/OSIG ASIK/police.shp" }, "geometry": { "type": "Point", "coordinates": [ 110.424174472342614, -6.983207837738581 ] } },
{ "type": "Feature", "properties": { "full_id": "w563304936", "osm_id": "563304936", "osm_type": "way", "amenity": "police", "name": "Polsek Gayamsari", "capacity_p": "100-250", "building_s": "confined_masonry", "building_r": "tile", "building_m": "brick", "building_f": "ceramics", "building_c": "good", "building": "police", "addr_full": "Jalan Slamet Riyadi No 5", "addr_city": "Semarang", "layer": "police", "path": "D:/OSIG ASIK/police.shp" }, "geometry": { "type": "Point", "coordinates": [ 110.449345029722863, -6.99965228371288 ] } },
{ "type": "Feature", "properties": { "full_id": "w564915121", "osm_id": "564915121", "osm_type": "way", "amenity": "police", "name": "Polsek Semarang Timur", "capacity_p": "<50", "building_s": "confined_masonry", "building_r": "tile", "building_m": "brick", "building_f": "ceramics", "building_c": "good", "building": "police", "addr_full": "Jalan Dr. Cipto no 66", "addr_city": "Semarang", "layer": "police", "path": "D:/OSIG ASIK/police.shp" }, "geometry": { "type": "Point", "coordinates": [ 110.4351122, -6.97581695 ] } },
{ "type": "Feature", "properties": { "full_id": "w568079420", "osm_id": "568079420", "osm_type": "way", "amenity": "police", "name": "Polsek Semarang Utara", "capacity_p": "100-250", "building_s": "confined_masonry", "building_r": "tile", "building_m": "brick", "building_f": "ceramics", "building_c": "good", "building": "police", "addr_full": "Jalan Letjen Suprapto No.45", "addr_city": "Semarang", "layer": "police", "path": "D:/OSIG ASIK/police.shp" }, "geometry": { "type": "Point", "coordinates": [ 110.429648547972349, -6.968187491678044 ] } },
{ "type": "Feature", "properties": { "full_id": "w580784412", "osm_id": "580784412", "osm_type": "way", "amenity": "police", "name": "Polsek Kecamatan Tembalang", "capacity_p": "50-100", "building_s": "confined_masonry", "building_r": "tile", "building_m": "brick", "building_f": "ceramics", "building_c": "good", "building": "police", "addr_full": "Jalan Turus Asri No. 9", "addr_city": "Semarang", "layer": "police", "path": "D:/OSIG ASIK/police.shp" }, "geometry": { "type": "Point", "coordinates": [ 110.447297888706544, -7.058986425605192 ] } },
{ "type": "Feature", "properties": { "full_id": "w582766939", "osm_id": "582766939", "osm_type": "way", "amenity": "police", "name": "Polsek Ngaliyan", "capacity_p": "100-250", "building_s": "confined_masonry", "building_r": "tile", "building_m": "brick", "building_f": "ceramics", "building_c": "good", "building": "police", "addr_full": "Jalan Prof Dr Hamka No. 234", "addr_city": "Semarang", "layer": "police", "path": "D:/OSIG ASIK/police.shp" }, "geometry": { "type": "Point", "coordinates": [ 110.347991524216795, -6.997613288276376 ] } },
{ "type": "Feature", "properties": { "full_id": "w588622413", "osm_id": "588622413", "osm_type": "way", "amenity": "police", "name": "Polsek Mijen", "capacity_p": "100-250", "building_s": "confined_masonry", "building_r": "tile", "building_m": "brick", "building_f": "ceramics", "building_c": "good", "building": "police", "addr_full": "Jalan RM Hadi Subeno", "addr_city": "Semarang", "layer": "police", "path": "D:/OSIG ASIK/police.shp" }, "geometry": { "type": "Point", "coordinates": [ 110.31606196900654, -7.053440248199427 ] } },
{ "type": "Feature", "properties": { "full_id": "w590076720", "osm_id": "590076720", "osm_type": "way", "amenity": "police", "name": "Polsek Gunungpati", "capacity_p": "100-250", "building_s": "confined_masonry", "building_r": "tile", "building_m": "brick", "building_f": "ceramics", "building_c": "good", "building": "police", "addr_full": "Jalan Kolonel RW Soegiarto Km 2", "addr_city": "Semarang", "layer": "police", "path": "D:/OSIG ASIK/police.shp" }, "geometry": { "type": "Point", "coordinates": [ 110.359105220031879, -7.071866518574614 ] } },
{ "type": "Feature", "properties": { "full_id": "w590344677", "osm_id": "590344677", "osm_type": "way", "amenity": "police", "name": "Polsek Banyumanik", "capacity_p": "100-250", "building_s": "confined_masonry", "building_r": "tile", "building_m": "brick", "building_f": "ceramics", "building_c": "good", "building": "police", "addr_full": "Jalan Nusa Indah", "addr_city": "Semarang", "layer": "police", "path": "D:/OSIG ASIK/police.shp" }, "geometry": { "type": "Point", "coordinates": [ 110.413362865175358, -7.072559721020848 ] } }
]
}
