{
"type": "FeatureCollection",
"name": "damkar",
"crs": { "type": "name", "properties": { "name": "urn:ogc:def:crs:OGC:1.3:CRS84" } },
"features": [
{ "type": "Feature", "properties": { "full_id": "w374684369", "osm_id": "374684369", "osm_type": "way", "amenity": "fire_station", "name": "Dinas Kebakaran Posko Banyumanik", "capacity_p": "50-100", "building_s": "confined_masonry", "building_r": "tile", "building_m": "brick", "building_l": "1", "building_f": "ceramics", "building_c": "good", "building": "fire_station", "backup_gen": "no", "addr_full": "Jalan Ngesrep Timur V", "addr_city": "Semarang", "access_roo": "no" }, "geometry": { "type": "Point", "coordinates": [ 110.425925547667148, -7.051013709492304 ] } },
{ "type": "Feature", "properties": { "full_id": "w563188453", "osm_id": "563188453", "osm_type": "way", "amenity": "fire_station", "name": "Dinas Pemadam Kebakaran Kota Semarang", "capacity_p": "100-250", "building_s": "confined_masonry", "building_r": "tile", "building_m": "brick", "building_l": "1", "building_f": "ceramics", "building_c": "good", "building": "fire_station", "backup_gen": null, "addr_full": "Jalan Madukoro Raya", "addr_city": "Semarang", "access_roo": "no" }, "geometry": { "type": "Point", "coordinates": [ 110.400580275497362, -6.978660717846362 ] } },
{ "type": "Feature", "properties": { "full_id": "w564500892", "osm_id": "564500892", "osm_type": "way", "amenity": "fire_station", "name": "Kantor Pemadam Kebakaran", "capacity_p": "<50", "building_s": "confined_masonry", "building_r": "tile", "building_m": "brick", "building_l": "1", "building_f": "ceramics", "building_c": "good", "building": "fire_station", "backup_gen": "yes", "addr_full": "Jalan Walisongo", "addr_city": "Semarang", "access_roo": "no" }, "geometry": { "type": "Point", "coordinates": [ 110.358418679323762, -6.986533240747685 ] } },
{ "type": "Feature", "properties": { "full_id": "w569813214", "osm_id": "569813214", "osm_type": "way", "amenity": "fire_station", "name": "Kantor Pemadam Kebakaran Gunungpati", "capacity_p": "50-100", "building_s": "confined_masonry", "building_r": "tile", "building_m": "brick", "building_l": "1", "building_f": "ceramics", "building_c": "good", "building": "fire_station", "backup_gen": "no", "addr_full": "Jalan Mr. Wuryanto", "addr_city": "Semarang", "access_roo": "no" }, "geometry": { "type": "Point", "coordinates": [ 110.367552325115994, -7.086513554539281 ] } },
{ "type": "Feature", "properties": { "full_id": "w588901370", "osm_id": "588901370", "osm_type": "way", "amenity": "fire_station", "name": "Kantor Dinas Kebakaran", "capacity_p": "100-250", "building_s": "confined_masonry", "building_r": "tile", "building_m": "brick", "building_l": "1", "building_f": "ceramics", "building_c": "good", "building": "fire_station", "backup_gen": "no", "addr_full": "Jalan Kelapa Gading Raya", "addr_city": "Semarang", "access_roo": "no" }, "geometry": { "type": "Point", "coordinates": [ 110.49852925, -7.02162815 ] } },
{ "type": "Feature", "properties": { "full_id": "w589164696", "osm_id": "589164696", "osm_type": "way", "amenity": "fire_station", "name": "Pos Pemadam Kebakaran BSB City", "capacity_p": "<50", "building_s": "confined_masonry", "building_r": "tile", "building_m": "brick", "building_l": "1", "building_f": "ceramics", "building_c": "good", "building": "fire_station", "backup_gen": "no", "addr_full": "Jalan BSB City", "addr_city": "Semarang", "access_roo": "no" }, "geometry": { "type": "Point", "coordinates": [ 110.328779550000021, -7.0425918 ] } }
]
}
