{
"type": "FeatureCollection",
"name": "puskesmas",
"crs": { "type": "name", "properties": { "name": "urn:ogc:def:crs:OGC:1.3:CRS84" } },
"features": [
{ "type": "Feature", "properties": { "full_id": "n5430983478", "osm_id": "5430983478", "osm_type": "node", "amenity": "clinic", "name": "Puskesmas Pandanaran", "addr_ful_1": null, "addr_cit_1": null, "layer": "amenity_clinic_Semarang, Indonesia" }, "geometry": { "type": "Point", "coordinates": [ 110.4146663, -6.9869932 ] } },
{ "type": "Feature", "properties": { "full_id": "w334865026", "osm_id": "334865026", "osm_type": "way", "amenity": "clinic", "name": "Puskemas Purwoyoso", "addr_ful_1": "Jalan Siliwangi No. 572", "addr_cit_1": "Semarang", "layer": "klinik" }, "geometry": { "type": "Point", "coordinates": [ 110.36731734995584, -6.988297299504172 ] } },
{ "type": "Feature", "properties": { "full_id": "w334976242", "osm_id": "334976242", "osm_type": "way", "amenity": "clinic", "name": "UPTD Puskesmas Gayamsari", "addr_ful_1": "Jalan Slamet Riyadi No. 40", "addr_cit_1": "Semarang", "layer": "klinik" }, "geometry": { "type": "Point", "coordinates": [ 110.448782793267185, -6.999864425211943 ] } },
{ "type": "Feature", "properties": { "full_id": "w337668565", "osm_id": "337668565", "osm_type": "way", "amenity": "clinic", "name": "Puskesmas Pembantu Kaligawe", "addr_ful_1": "Jalan Sawah Besar XIII", "addr_cit_1": "Semarang", "layer": "klinik" }, "geometry": { "type": "Point", "coordinates": [ 110.44636435000001, -6.96519655 ] } },
{ "type": "Feature", "properties": { "full_id": "w337931946", "osm_id": "337931946", "osm_type": "way", "amenity": "clinic", "name": "Puskesmas Karangdoro", "addr_ful_1": "Jalan Raden Patah No 178", "addr_cit_1": "Semarang", "layer": "klinik" }, "geometry": { "type": "Point", "coordinates": [ 110.435837672982572, -6.96384483348064 ] } },
{ "type": "Feature", "properties": { "full_id": "w338299042", "osm_id": "338299042", "osm_type": "way", "amenity": "clinic", "name": "Puskesmas Krobokan", "addr_ful_1": "Jalan Aribuana No. 1", "addr_cit_1": "Semarang", "layer": "klinik" }, "geometry": { "type": "Point", "coordinates": [ 110.394388955570449, -6.974921374167153 ] } },
{ "type": "Feature", "properties": { "full_id": "w338786583", "osm_id": "338786583", "osm_type": "way", "amenity": "clinic", "name": "Puskesmas Karangayu", "addr_ful_1": "Jalan Kenconowungu III No. 28", "addr_cit_1": "Semarang", "layer": "klinik" }, "geometry": { "type": "Point", "coordinates": [ 110.392806871453217, -6.980477335293531 ] } },
{ "type": "Feature", "properties": { "full_id": "w338970971", "osm_id": "338970971", "osm_type": "way", "amenity": "clinic", "name": "Puskesmas Lebdosari", "addr_ful_1": "Jalan Taman Lebdosari Raya", "addr_cit_1": "Semarang", "layer": "klinik" }, "geometry": { "type": "Point", "coordinates": [ 110.379359671007421, -6.993853636022723 ] } },
{ "type": "Feature", "properties": { "full_id": "w339099888", "osm_id": "339099888", "osm_type": "way", "amenity": "clinic", "name": "Puskesmas Pembantu Gisikdrono", "addr_ful_1": "Jalan Srirejeki Raya", "addr_cit_1": "Semarang", "layer": "klinik" }, "geometry": { "type": "Point", "coordinates": [ 110.385178545641665, -6.992142216171604 ] } },
{ "type": "Feature", "properties": { "full_id": "w339572638", "osm_id": "339572638", "osm_type": "way", "amenity": "clinic", "name": "Puskesmas Ngemplak Simongan", "addr_ful_1": "Jalan Srinindito IV", "addr_cit_1": "Semarang", "layer": "klinik" }, "geometry": { "type": "Point", "coordinates": [ 110.393221250000011, -7.00074275 ] } },
{ "type": "Feature", "properties": { "full_id": "w339596125", "osm_id": "339596125", "osm_type": "way", "amenity": "clinic", "name": "Puskesmas Manyaran", "addr_ful_1": "Jalan Abdulrahman Saleh No. 267", "addr_cit_1": "Semarang", "layer": "klinik" }, "geometry": { "type": "Point", "coordinates": [ 110.379386523446726, -7.005744317025909 ] } },
{ "type": "Feature", "properties": { "full_id": "w339899400", "osm_id": "339899400", "osm_type": "way", "amenity": "clinic", "name": "Puskesmas Pembantu Panggung", "addr_ful_1": "Jalan Brotojoyo I", "addr_cit_1": "Semarang", "layer": "klinik" }, "geometry": { "type": "Point", "coordinates": [ 110.406983950000011, -6.9658363 ] } },
{ "type": "Feature", "properties": { "full_id": "w339940919", "osm_id": "339940919", "osm_type": "way", "amenity": "clinic", "name": "Puskesmas Pembantu Manyaran", "addr_ful_1": "Kelurahan Manyaran", "addr_cit_1": "Semarang", "layer": "klinik" }, "geometry": { "type": "Point", "coordinates": [ 110.385393649132538, -7.011699633170942 ] } },
{ "type": "Feature", "properties": { "full_id": "w340781247", "osm_id": "340781247", "osm_type": "way", "amenity": "clinic", "name": "Puskesmas Pembantu Jangli", "addr_ful_1": "Jalan Kesatrian", "addr_cit_1": "Semarang", "layer": "klinik" }, "geometry": { "type": "Point", "coordinates": [ 110.427562005011993, -7.026588665971547 ] } },
{ "type": "Feature", "properties": { "full_id": "w341976358", "osm_id": "341976358", "osm_type": "way", "amenity": "clinic", "name": "Puskesmas Bugangan", "addr_ful_1": "Jalan Cilosari", "addr_cit_1": "Semarang", "layer": "klinik" }, "geometry": { "type": "Point", "coordinates": [ 110.44022605688869, -6.973793115436699 ] } },
{ "type": "Feature", "properties": { "full_id": "w341988912", "osm_id": "341988912", "osm_type": "way", "amenity": "clinic", "name": "Puskesmas Pembantu Dadapsari", "addr_ful_1": "Jalan Cumi Cumi Raya", "addr_cit_1": "Semarang", "layer": "klinik" }, "geometry": { "type": "Point", "coordinates": [ 110.418958395678573, -6.956852479236773 ] } },
{ "type": "Feature", "properties": { "full_id": "w342159537", "osm_id": "342159537", "osm_type": "way", "amenity": "clinic", "name": "Puskesmas Bulu Lor", "addr_ful_1": "Jalan Banowati Selatan II", "addr_cit_1": "Semarang", "layer": "klinik" }, "geometry": { "type": "Point", "coordinates": [ 110.406835390509073, -6.975048570741982 ] } },
{ "type": "Feature", "properties": { "full_id": "w342266114", "osm_id": "342266114", "osm_type": "way", "amenity": "clinic", "name": "Puskesmas Pembantu Tegalasari", "addr_ful_1": "Jalan Genuk Baru", "addr_cit_1": "Semarang", "layer": "klinik" }, "geometry": { "type": "Point", "coordinates": [ 110.422943350000011, -7.005081 ] } },
{ "type": "Feature", "properties": { "full_id": "w342667252", "osm_id": "342667252", "osm_type": "way", "amenity": "clinic", "name": "Puskesmas Pembantu Kuningan", "addr_ful_1": "Jalan Bom Lama", "addr_cit_1": "Semarang", "layer": "klinik" }, "geometry": { "type": "Point", "coordinates": [ 110.417223761407072, -6.960899419300398 ] } },
{ "type": "Feature", "properties": { "full_id": "w342668661", "osm_id": "342668661", "osm_type": "way", "amenity": "clinic", "name": "Puskesmas Miroto", "addr_ful_1": "Jalan Taman Seteran Barat No. 3", "addr_cit_1": "Semarang", "layer": "klinik" }, "geometry": { "type": "Point", "coordinates": [ 110.419004812259359, -6.983865868295984 ] } },
{ "type": "Feature", "properties": { "full_id": "w342695899", "osm_id": "342695899", "osm_type": "way", "amenity": "clinic", "name": "Puskesmas Poncol", "addr_ful_1": "Jalan Imam Bonjol No. 114", "addr_cit_1": "Semarang", "layer": "klinik" }, "geometry": { "type": "Point", "coordinates": [ 110.414602853179602, -6.973894718459579 ] } },
{ "type": "Feature", "properties": { "full_id": "w395023990", "osm_id": "395023990", "osm_type": "way", "amenity": "clinic", "name": "Puskesmas Pembantu Pongangan", "addr_ful_1": "Jalan Raya Pongangan", "addr_cit_1": "Semarang", "layer": "klinik" }, "geometry": { "type": "Point", "coordinates": [ 110.36538492387588, -7.061666558869291 ] } },
{ "type": "Feature", "properties": { "full_id": "w500070683", "osm_id": "500070683", "osm_type": "way", "amenity": "clinic", "name": "Puskesmas Sekaran", "addr_ful_1": "Gang Rambutan No. 44", "addr_cit_1": "Semarang", "layer": "klinik" }, "geometry": { "type": "Point", "coordinates": [ 110.393503952726277, -7.051945133199312 ] } },
{ "type": "Feature", "properties": { "full_id": "w530578020", "osm_id": "530578020", "osm_type": "way", "amenity": "clinic", "name": "Puskesmas Pembantu Multiharjo Kidul", "addr_ful_1": "Jalan Taman Suryo Kusumo", "addr_cit_1": "Semarang", "layer": "klinik" }, "geometry": { "type": "Point", "coordinates": [ 110.464823902450618, -6.978345980683442 ] } },
{ "type": "Feature", "properties": { "full_id": "w530854511", "osm_id": "530854511", "osm_type": "way", "amenity": "clinic", "name": "Puskesmas Pembantu Ratu Ratih", "addr_ful_1": null, "addr_cit_1": "Semarang", "layer": "klinik" }, "geometry": { "type": "Point", "coordinates": [ 110.460922479472359, -6.986495942635402 ] } },
{ "type": "Feature", "properties": { "full_id": "w558681305", "osm_id": "558681305", "osm_type": "way", "amenity": "clinic", "name": "Puskesmas Pembantu Gajahmungkur", "addr_ful_1": "Jalan Cikurai Raya", "addr_cit_1": "Semarang", "layer": "klinik" }, "geometry": { "type": "Point", "coordinates": [ 110.409796739135658, -7.012052619160729 ] } },
{ "type": "Feature", "properties": { "full_id": "w558971689", "osm_id": "558971689", "osm_type": "way", "amenity": "clinic", "name": "Puskesmas Halmahera", "addr_ful_1": "Jalan Halmahera Raya No.40", "addr_cit_1": "Semarang", "layer": "klinik" }, "geometry": { "type": "Point", "coordinates": [ 110.437802638549854, -6.994885481913974 ] } },
{ "type": "Feature", "properties": { "full_id": "w559645449", "osm_id": "559645449", "osm_type": "way", "amenity": "clinic", "name": "Puskesmas Pembantu Siwalan", "addr_ful_1": "Jalan Jolotundo 1", "addr_cit_1": "Semarang", "layer": "klinik" }, "geometry": { "type": "Point", "coordinates": [ 110.450426349999987, -6.9858446 ] } },
{ "type": "Feature", "properties": { "full_id": "w559693492", "osm_id": "559693492", "osm_type": "way", "amenity": "clinic", "name": "Puskesmas Pembantu & Posyandu Dahlia I", "addr_ful_1": "Jalan Pesantren", "addr_cit_1": "Semarang", "layer": "klinik" }, "geometry": { "type": "Point", "coordinates": [ 110.310416252313402, -7.021359257731606 ] } },
{ "type": "Feature", "properties": { "full_id": "w559967836", "osm_id": "559967836", "osm_type": "way", "amenity": "clinic", "name": "Puskesmas Pegandan", "addr_ful_1": "Jalan Kendeng Barat III No. 2", "addr_cit_1": "Semarang", "layer": "klinik" }, "geometry": { "type": "Point", "coordinates": [ 110.393800525765499, -7.016101657435907 ] } },
{ "type": "Feature", "properties": { "full_id": "w561172851", "osm_id": "561172851", "osm_type": "way", "amenity": "clinic", "name": "Puskesmas Bandarharjo", "addr_ful_1": "Jalan Layur", "addr_cit_1": "Semarang", "layer": "klinik" }, "geometry": { "type": "Point", "coordinates": [ 110.422563265854109, -6.964786436946239 ] } },
{ "type": "Feature", "properties": { "full_id": "w562642046", "osm_id": "562642046", "osm_type": "way", "amenity": "clinic", "name": "Puskemas Karangayu", "addr_ful_1": "Jalan Puspawarno Tengah V", "addr_cit_1": "Semarang", "layer": "klinik" }, "geometry": { "type": "Point", "coordinates": [ 110.392556803511269, -6.984287528244294 ] } },
{ "type": "Feature", "properties": { "full_id": "w563239477", "osm_id": "563239477", "osm_type": "way", "amenity": "clinic", "name": "Puskesmas Kagok", "addr_ful_1": "Jalan Telomoyo No 1", "addr_cit_1": "Semarang", "layer": "klinik" }, "geometry": { "type": "Point", "coordinates": [ 110.417313925631518, -7.008550617498893 ] } },
{ "type": "Feature", "properties": { "full_id": "w563519651", "osm_id": "563519651", "osm_type": "way", "amenity": "clinic", "name": "Puskesmas Pembantu Podorejo", "addr_ful_1": "Jalan Kaliancar", "addr_cit_1": "Semarang", "layer": "klinik" }, "geometry": { "type": "Point", "coordinates": [ 110.296773597727096, -7.001291117801737 ] } },
{ "type": "Feature", "properties": { "full_id": "w564211593", "osm_id": "564211593", "osm_type": "way", "amenity": "clinic", "name": "Puskesmas Lamper Tengah", "addr_ful_1": "Jalan Lamper Tengah Gang XV", "addr_cit_1": "Semarang", "layer": "klinik" }, "geometry": { "type": "Point", "coordinates": [ 110.44734745, -7.00512555 ] } },
{ "type": "Feature", "properties": { "full_id": "w567631670", "osm_id": "567631670", "osm_type": "way", "amenity": "clinic", "name": "Puskesmas Pembantu Sadeng", "addr_ful_1": "Jalan Desel II", "addr_cit_1": "Semarang", "layer": "klinik" }, "geometry": { "type": "Point", "coordinates": [ 110.372997379401639, -7.029554458531432 ] } },
{ "type": "Feature", "properties": { "full_id": "w569835928", "osm_id": "569835928", "osm_type": "way", "amenity": "clinic", "name": "Puskesmas Pembantu Sumurejo", "addr_ful_1": "Jalan Mr. Wurjanto", "addr_cit_1": "Semarang", "layer": "klinik" }, "geometry": { "type": "Point", "coordinates": [ 110.387160251283504, -7.10363949394613 ] } },
{ "type": "Feature", "properties": { "full_id": "w569907141", "osm_id": "569907141", "osm_type": "way", "amenity": "clinic", "name": "Puskesmas Srondol", "addr_ful_1": "Jalan Setiabudi", "addr_cit_1": "Semarang", "layer": "klinik" }, "geometry": { "type": "Point", "coordinates": [ 110.414097254406599, -7.058840779467391 ] } },
{ "type": "Feature", "properties": { "full_id": "w570128060", "osm_id": "570128060", "osm_type": "way", "amenity": "clinic", "name": "Puskesmas Pembantu Gebangsari", "addr_ful_1": "Jalan Gebang Anom No. 24", "addr_cit_1": "Semarang", "layer": "klinik" }, "geometry": { "type": "Point", "coordinates": [ 110.46935770373139, -6.962764574732839 ] } },
{ "type": "Feature", "properties": { "full_id": "w570132293", "osm_id": "570132293", "osm_type": "way", "amenity": "clinic", "name": "Puskesmas Pembantu Patemon", "addr_ful_1": "Jalan Mr Koesbiyono Tjondrobirowo", "addr_cit_1": "Semarang", "layer": "klinik" }, "geometry": { "type": "Point", "coordinates": [ 110.387858318355953, -7.07843673591244 ] } },
{ "type": "Feature", "properties": { "full_id": "w570227434", "osm_id": "570227434", "osm_type": "way", "amenity": "clinic", "name": "Puskesmas Candi Lama", "addr_ful_1": "Jalan Dr Wahidin", "addr_cit_1": "Semarang", "layer": "klinik" }, "geometry": { "type": "Point", "coordinates": [ 110.431678267578306, -7.013308628762705 ] } },
{ "type": "Feature", "properties": { "full_id": "w574332440", "osm_id": "574332440", "osm_type": "way", "amenity": "clinic", "name": "Puskesmas Pembantu Sendangguwo", "addr_ful_1": "Jalan Sendangguwo", "addr_cit_1": "Semarang", "layer": "klinik" }, "geometry": { "type": "Point", "coordinates": [ 110.453336300000018, -7.0136317 ] } },
{ "type": "Feature", "properties": { "full_id": "w576240217", "osm_id": "576240217", "osm_type": "way", "amenity": "clinic", "name": "Puskesmas Pudak Payung", "addr_ful_1": "Jalan Payung Mas Raya", "addr_cit_1": "Semarang", "layer": "klinik" }, "geometry": { "type": "Point", "coordinates": [ 110.414376395328176, -7.091279100477466 ] } },
{ "type": "Feature", "properties": { "full_id": "w576256837", "osm_id": "576256837", "osm_type": "way", "amenity": "clinic", "name": "Puskesmas Pembantu Pedurungan Kidul", "addr_ful_1": "Jalan Larasati Plamongan Sari", "addr_cit_1": "Semarang", "layer": "klinik" }, "geometry": { "type": "Point", "coordinates": [ 110.47846765, -7.02187365 ] } },
{ "type": "Feature", "properties": { "full_id": "w578353806", "osm_id": "578353806", "osm_type": "way", "amenity": "clinic", "name": "Puskesmas Karangmalang", "addr_ful_1": "Jalan Raya Karangmalang", "addr_cit_1": "Semarang", "layer": "klinik" }, "geometry": { "type": "Point", "coordinates": [ 110.33407272543117, -7.094280615244898 ] } },
{ "type": "Feature", "properties": { "full_id": "w579487532", "osm_id": "579487532", "osm_type": "way", "amenity": "clinic", "name": "Puskesmas Pembantu Jatibarang", "addr_ful_1": "Jalan Kaligetas", "addr_cit_1": "Semarang", "layer": "klinik" }, "geometry": { "type": "Point", "coordinates": [ 110.33533460000001, -7.0631857 ] } },
{ "type": "Feature", "properties": { "full_id": "w580375071", "osm_id": "580375071", "osm_type": "way", "amenity": "clinic", "name": "Puskesmas Pembantu Plamongansari", "addr_ful_1": "Jalan Plamongan Sari V", "addr_cit_1": "Semarang", "layer": "klinik" }, "geometry": { "type": "Point", "coordinates": [ 110.486315200000021, -7.0243321 ] } },
{ "type": "Feature", "properties": { "full_id": "w580708384", "osm_id": "580708384", "osm_type": "way", "amenity": "clinic", "name": "Puskesmas Mangkang", "addr_ful_1": "Jalan Jendral Oerip Soemoharjo Km 16", "addr_cit_1": "Semarang", "layer": "klinik" }, "geometry": { "type": "Point", "coordinates": [ 110.297840171056407, -6.972006750115834 ] } },
{ "type": "Feature", "properties": { "full_id": "w580743280", "osm_id": "580743280", "osm_type": "way", "amenity": "clinic", "name": "Puskesmas Kedungmundu", "addr_ful_1": "Jalan Sambiroto", "addr_cit_1": "Semarang", "layer": "klinik" }, "geometry": { "type": "Point", "coordinates": [ 110.460267683729157, -7.025991720089406 ] } },
{ "type": "Feature", "properties": { "full_id": "w581048644", "osm_id": "581048644", "osm_type": "way", "amenity": "clinic", "name": "Puskesmas Padangsari", "addr_ful_1": "Jalan Meranti Raya", "addr_cit_1": "Semarang", "layer": "klinik" }, "geometry": { "type": "Point", "coordinates": [ 110.421705658890957, -7.070419975295301 ] } },
{ "type": "Feature", "properties": { "full_id": "w581175351", "osm_id": "581175351", "osm_type": "way", "amenity": "clinic", "name": "Puskesmas Genuk", "addr_ful_1": "Jalan Genuksari", "addr_cit_1": "Semarang", "layer": "klinik" }, "geometry": { "type": "Point", "coordinates": [ 110.479630077424403, -6.95325218707647 ] } },
{ "type": "Feature", "properties": { "full_id": "w581776458", "osm_id": "581776458", "osm_type": "way", "amenity": "clinic", "name": "Puskesmas Tlogosari Kulon", "addr_ful_1": "Jalan Taman Satrio Manah II", "addr_cit_1": "Semarang", "layer": "klinik" }, "geometry": { "type": "Point", "coordinates": [ 110.457403185388102, -6.980885126699061 ] } },
{ "type": "Feature", "properties": { "full_id": "w581872464", "osm_id": "581872464", "osm_type": "way", "amenity": "clinic", "name": "Puskesmas Tlogosari Wetan", "addr_ful_1": "Jalan Puskesmas", "addr_cit_1": "Semarang", "layer": "klinik" }, "geometry": { "type": "Point", "coordinates": [ 110.464394947693677, -6.996723798161039 ] } },
{ "type": "Feature", "properties": { "full_id": "w581873819", "osm_id": "581873819", "osm_type": "way", "amenity": "clinic", "name": "Puskesmas Ngaliyan", "addr_ful_1": "Jalan Wismasari Raya", "addr_cit_1": "Semarang", "layer": "klinik" }, "geometry": { "type": "Point", "coordinates": [ 110.347398863226076, -6.997985345950847 ] } },
{ "type": "Feature", "properties": { "full_id": "w582763883", "osm_id": "582763883", "osm_type": "way", "amenity": "clinic", "name": "Puskesmas Pembantu Bulusan", "addr_ful_1": "Jalan Imam Soeparto", "addr_cit_1": "Semarang", "layer": "klinik" }, "geometry": { "type": "Point", "coordinates": [ 110.445575540037595, -7.060395675765531 ] } },
{ "type": "Feature", "properties": { "full_id": "w582980161", "osm_id": "582980161", "osm_type": "way", "amenity": "clinic", "name": "Puskesmas Pembantu Wonolopo", "addr_ful_1": "Jalan Dukuh Kuripan", "addr_cit_1": "Semarang", "layer": "klinik" }, "geometry": { "type": "Point", "coordinates": [ 110.299921162298361, -7.039347684607961 ] } },
{ "type": "Feature", "properties": { "full_id": "w583100728", "osm_id": "583100728", "osm_type": "way", "amenity": "clinic", "name": "Puskesmas Rowosari", "addr_ful_1": "Jalan Tunggu Raya", "addr_cit_1": "Semarang", "layer": "klinik" }, "geometry": { "type": "Point", "coordinates": [ 110.471865056448294, -7.05562456448448 ] } },
{ "type": "Feature", "properties": { "full_id": "w583868286", "osm_id": "583868286", "osm_type": "way", "amenity": "clinic", "name": "Puskesmas Pembantu Karangroto", "addr_ful_1": "Jalan K. Imam Faruki Raya", "addr_cit_1": "Semarang", "layer": "klinik" }, "geometry": { "type": "Point", "coordinates": [ 110.495122623428202, -6.97167950990516 ] } },
{ "type": "Feature", "properties": { "full_id": "w584507956", "osm_id": "584507956", "osm_type": "way", "amenity": "clinic", "name": "Puskesmas Bangetayu Wetan", "addr_ful_1": "Jalan Wolter Monginsidi", "addr_cit_1": "Semarang", "layer": "klinik" }, "geometry": { "type": "Point", "coordinates": [ 110.476563268537888, -6.983089179418821 ] } },
{ "type": "Feature", "properties": { "full_id": "w585060140", "osm_id": "585060140", "osm_type": "way", "amenity": "clinic", "name": "Puskesmas Pembantu Mangunharjo", "addr_ful_1": "Jalan Laut Mangunharjo", "addr_cit_1": "Semarang", "layer": "klinik" }, "geometry": { "type": "Point", "coordinates": [ 110.310889828303914, -6.961494514677785 ] } },
{ "type": "Feature", "properties": { "full_id": "w585619008", "osm_id": "585619008", "osm_type": "way", "amenity": "clinic", "name": "Puskesmas Tambakaji", "addr_ful_1": "Jalan Walisongo", "addr_cit_1": "Semarang", "layer": "klinik" }, "geometry": { "type": "Point", "coordinates": [ 110.350357507862498, -6.983365080995775 ] } },
{ "type": "Feature", "properties": { "full_id": "w587405560", "osm_id": "587405560", "osm_type": "way", "amenity": "clinic", "name": "Puskesmas Gunungpati", "addr_ful_1": "Jalan Mr. Wuryanto", "addr_cit_1": "Semarang", "layer": "klinik" }, "geometry": { "type": "Point", "coordinates": [ 110.366063178234853, -7.086535419724835 ] } },
{ "type": "Feature", "properties": { "full_id": "w587410595", "osm_id": "587410595", "osm_type": "way", "amenity": "clinic", "name": "Puskesmas Karanganyar", "addr_ful_1": "Jalan Tirto", "addr_cit_1": "Semarang", "layer": "klinik" }, "geometry": { "type": "Point", "coordinates": [ 110.334486674181761, -6.972003292387222 ] } },
{ "type": "Feature", "properties": { "full_id": "w588622739", "osm_id": "588622739", "osm_type": "way", "amenity": "clinic", "name": "Puskesmas Mijen", "addr_ful_1": "Jalan RM. Hadi Soebono", "addr_cit_1": "Semarang", "layer": "klinik" }, "geometry": { "type": "Point", "coordinates": [ 110.314279265711619, -7.055716524237147 ] } },
{ "type": "Feature", "properties": { "full_id": "w588862177", "osm_id": "588862177", "osm_type": "way", "amenity": "clinic", "name": "Puskesmas Ngesrep", "addr_ful_1": "Jalan Jatingaleh 1", "addr_cit_1": "Semarang", "layer": "klinik" }, "geometry": { "type": "Point", "coordinates": [ 110.418572754739955, -7.033638513416479 ] } },
{ "type": "Feature", "properties": { "full_id": "w590762084", "osm_id": "590762084", "osm_type": "way", "amenity": "clinic", "name": "Puskesmas Pembantu Bringin", "addr_ful_1": "Jalan K.R.T Wongsonrgoro", "addr_cit_1": "Semarang", "layer": "klinik" }, "geometry": { "type": "Point", "coordinates": [ 110.329301858143737, -6.994932831610198 ] } },
{ "type": "Feature", "properties": { "full_id": "w1418460778", "osm_id": "1418460778", "osm_type": "way", "amenity": "clinic", "name": "Puskesmas Pembantu Muktiharjo Lor", "addr_ful_1": null, "addr_cit_1": "Semarang", "layer": "klinik" }, "geometry": { "type": "Point", "coordinates": [ 110.458940205008432, -6.966473433275392 ] } },
{ "type": "Feature", "properties": { "full_id": "w1418874108", "osm_id": "1418874108", "osm_type": "way", "amenity": "clinic", "name": "Puskesmas Pembantu Kekancan Mukti", "addr_ful_1": "Jalan Pedurungan Lor", "addr_cit_1": "Semarang", "layer": "klinik" }, "geometry": { "type": "Point", "coordinates": [ 110.47626529999998, -7.00746025 ] } }
]
}
