{
"type": "FeatureCollection",
"name": "rumah_sakit",
"crs": { "type": "name", "properties": { "name": "urn:ogc:def:crs:OGC:1.3:CRS84" } },
"features": [
{ "type": "Feature", "properties": { "full_id": "n7241667564", "osm_id": "7241667564", "osm_type": "node", "amenity": null, "operator_t": null, "operator": null, "healthcare": null, "emergency": null, "addr_stree": null, "addr_postc": null, "addr_city": null, "name": "Rumah Sakit Roemani Muhammadiyah", "healthca_1": null, "barrier": "gate", "access": "permissive", "addr_provi": null, "alt_name": null, "wikidata": null, "ground_flo": null, "name_etymo": null, "name_ety_1": null, "official_n": null, "capacity_p": null, "building_s": null, "building_r": null, "building_m": null, "building_l": null, "building_f": null, "building_c": null, "building": null, "backup_gen": null, "access_roo": null, "wheelchair": null, "website": null, "url": null, "opening_ho": null, "insurance_": null, "health_ame": null, "contact_ph": null, "addr_house": null, "addr_full": null, "layer": "rs 1", "path": "D:/OSIG ASIK/Reproject/rs 1.shp", "id": "RS01" }, "geometry": { "type": "Point", "coordinates": [ 110.42800680000002, -7.0007754 ] } },
{ "type": "Feature", "properties": { "full_id": "n7765543837", "osm_id": "7765543837", "osm_type": "node", "amenity": null, "operator_t": null, "operator": null, "healthcare": null, "emergency": null, "addr_stree": null, "addr_postc": null, "addr_city": null, "name": "Rumah Sakit Bhayangkara Semarang", "healthca_1": null, "barrier": "lift_gate", "access": null, "addr_provi": null, "alt_name": null, "wikidata": null, "ground_flo": null, "name_etymo": null, "name_ety_1": null, "official_n": null, "capacity_p": null, "building_s": null, "building_r": null, "building_m": null, "building_l": null, "building_f": null, "building_c": null, "building": null, "backup_gen": null, "access_roo": null, "wheelchair": null, "website": null, "url": null, "opening_ho": null, "insurance_": null, "health_ame": null, "contact_ph": null, "addr_house": null, "addr_full": null, "layer": "rs 1", "path": "D:/OSIG ASIK/Reproject/rs 1.shp", "id": "RS02" }, "geometry": { "type": "Point", "coordinates": [ 110.4463587, -7.0006356 ] } },
{ "type": "Feature", "properties": { "full_id": "n9787205987", "osm_id": "9787205987", "osm_type": "node", "amenity": "hospital", "operator_t": null, "operator": null, "healthcare": null, "emergency": null, "addr_stree": null, "addr_postc": null, "addr_city": null, "name": "Primaya Hospital Semarang", "healthca_1": "hospital", "barrier": null, "access": null, "addr_provi": null, "alt_name": null, "wikidata": null, "ground_flo": null, "name_etymo": null, "name_ety_1": null, "official_n": null, "capacity_p": null, "building_s": null, "building_r": null, "building_m": null, "building_l": null, "building_f": null, "building_c": null, "building": null, "backup_gen": null, "access_roo": null, "wheelchair": null, "website": null, "url": null, "opening_ho": null, "insurance_": null, "health_ame": null, "contact_ph": null, "addr_house": null, "addr_full": null, "layer": "rs 1", "path": "D:/OSIG ASIK/Reproject/rs 1.shp", "id": "RS03" }, "geometry": { "type": "Point", "coordinates": [ 110.4614668, -7.0234139 ] } },
{ "type": "Feature", "properties": { "full_id": "n10968096911", "osm_id": "10968096911", "osm_type": "node", "amenity": "hospital", "operator_t": "public", "operator": "Government", "healthcare": "dentist;physiotherapy", "emergency": "yes", "addr_stree": "Jalan Kaligawe Raya", "addr_postc": "50112", "addr_city": "Semarang", "name": "RSI Sultan Agung Semarang", "healthca_1": "hospital", "barrier": null, "access": null, "addr_provi": null, "alt_name": null, "wikidata": null, "ground_flo": null, "name_etymo": null, "name_ety_1": null, "official_n": null, "capacity_p": null, "building_s": null, "building_r": null, "building_m": null, "building_l": null, "building_f": null, "building_c": null, "building": null, "backup_gen": null, "access_roo": null, "wheelchair": null, "website": null, "url": null, "opening_ho": null, "insurance_": null, "health_ame": null, "contact_ph": null, "addr_house": null, "addr_full": null, "layer": "rs 1", "path": "D:/OSIG ASIK/Reproject/rs 1.shp", "id": "RS04" }, "geometry": { "type": "Point", "coordinates": [ 110.4616399, -6.9550954 ] } },
{ "type": "Feature", "properties": { "full_id": "w155565070", "osm_id": "155565070", "osm_type": "way", "amenity": "hospital", "operator_t": "government", "operator": null, "healthcare": "emergency;endocrinology;gastroenterology;general;gynaecology;haematology;hepatology;nuclear;oncology;radiology;radiotherapy;rheumatology;surgical_oncology;thoracic_surgery", "emergency": "yes", "addr_stree": "Jl. Dr. Sutomo", "addr_postc": "50244", "addr_city": "Semarang", "name": "Rumah Sakit Umum Pusat Dr. Kariadi", "healthca_1": "hospital", "barrier": null, "access": null, "addr_provi": null, "alt_name": null, "wikidata": null, "ground_flo": null, "name_etymo": null, "name_ety_1": null, "official_n": null, "capacity_p": null, "building_s": null, "building_r": null, "building_m": null, "building_l": null, "building_f": null, "building_c": null, "building": null, "backup_gen": null, "access_roo": null, "wheelchair": "yes", "website": "https://rs-kariadi.go.id/", "url": "https://www.rskariadi.co.id", "opening_ho": "24/7", "insurance_": "public", "health_ame": "emergency_department;intensive_care_unit;laboratory;mri;x_ray", "contact_ph": "+62 24 8413476", "addr_house": "16", "addr_full": "Jalan Dr Sutomo No 16", "layer": "rs 2", "path": "D:/OSIG ASIK/Reproject/rs 2.shp", "id": "RS05" }, "geometry": { "type": "Point", "coordinates": [ 110.408788497065757, -6.993515990748361 ] } },
{ "type": "Feature", "properties": { "full_id": "w285326813", "osm_id": "285326813", "osm_type": "way", "amenity": "hospital", "operator_t": "private", "operator": null, "healthcare": null, "emergency": null, "addr_stree": null, "addr_postc": null, "addr_city": "Semarang", "name": "Rumah Sakit Hermina Pandanaran", "healthca_1": null, "barrier": null, "access": null, "addr_provi": null, "alt_name": null, "wikidata": null, "ground_flo": null, "name_etymo": null, "name_ety_1": null, "official_n": null, "capacity_p": ">500", "building_s": "confined_masonry", "building_r": "concrete", "building_m": "brick", "building_l": "6", "building_f": "ceramics", "building_c": "good", "building": "hospital", "backup_gen": "yes", "access_roo": "yes", "wheelchair": null, "website": null, "url": null, "opening_ho": null, "insurance_": null, "health_ame": null, "contact_ph": null, "addr_house": null, "addr_full": "Jalan Pandanaran No. 24", "layer": "rs 2", "path": "D:/OSIG ASIK/Reproject/rs 2.shp", "id": "RS06" }, "geometry": { "type": "Point", "coordinates": [ 110.412798450550198, -6.985516432949473 ] } },
{ "type": "Feature", "properties": { "full_id": "w302600833", "osm_id": "302600833", "osm_type": "way", "amenity": "hospital", "operator_t": "private", "operator": null, "healthcare": null, "emergency": null, "addr_stree": "Jalan R. E. Martadinata", "addr_postc": null, "addr_city": "Semarang", "name": "RS Samsoe Hidajat", "healthca_1": null, "barrier": null, "access": null, "addr_provi": null, "alt_name": null, "wikidata": null, "ground_flo": null, "name_etymo": null, "name_ety_1": null, "official_n": "Rumah Sakit Samsoe Hidajat", "capacity_p": null, "building_s": null, "building_r": null, "building_m": null, "building_l": null, "building_f": null, "building_c": null, "building": null, "backup_gen": null, "access_roo": null, "wheelchair": null, "website": null, "url": null, "opening_ho": null, "insurance_": null, "health_ame": null, "contact_ph": null, "addr_house": "9", "addr_full": "Jalan Yos Sudarso", "layer": "rs 2", "path": "D:/OSIG ASIK/Reproject/rs 2.shp", "id": "RS07" }, "geometry": { "type": "Point", "coordinates": [ 110.385917584874065, -6.977493073766258 ] } },
{ "type": "Feature", "properties": { "full_id": "w334603716", "osm_id": "334603716", "osm_type": "way", "amenity": "hospital", "operator_t": null, "operator": null, "healthcare": null, "emergency": null, "addr_stree": null, "addr_postc": null, "addr_city": null, "name": "Rumah Sakit Mata Utama JEC-Candi Gisikdrono", "healthca_1": "hospital", "barrier": null, "access": null, "addr_provi": null, "alt_name": null, "wikidata": null, "ground_flo": null, "name_etymo": null, "name_ety_1": null, "official_n": null, "capacity_p": null, "building_s": null, "building_r": null, "building_m": null, "building_l": null, "building_f": null, "building_c": null, "building": "yes", "backup_gen": null, "access_roo": null, "wheelchair": null, "website": null, "url": null, "opening_ho": null, "insurance_": null, "health_ame": null, "contact_ph": null, "addr_house": null, "addr_full": null, "layer": "rs 2", "path": "D:/OSIG ASIK/Reproject/rs 2.shp", "id": "RS08" }, "geometry": { "type": "Point", "coordinates": [ 110.38669725, -6.98779305 ] } },
{ "type": "Feature", "properties": { "full_id": "w334664988", "osm_id": "334664988", "osm_type": "way", "amenity": "hospital", "operator_t": "government", "operator": null, "healthcare": null, "emergency": null, "addr_stree": null, "addr_postc": null, "addr_city": "Semarang", "name": "RS Bhayangkara Akpol", "healthca_1": null, "barrier": null, "access": null, "addr_provi": null, "alt_name": null, "wikidata": null, "ground_flo": null, "name_etymo": null, "name_ety_1": null, "official_n": null, "capacity_p": null, "building_s": null, "building_r": null, "building_m": null, "building_l": null, "building_f": null, "building_c": null, "building": "hospital", "backup_gen": null, "access_roo": null, "wheelchair": null, "website": null, "url": null, "opening_ho": null, "insurance_": null, "health_ame": null, "contact_ph": null, "addr_house": null, "addr_full": null, "layer": "rs 2", "path": "D:/OSIG ASIK/Reproject/rs 2.shp", "id": "RS09" }, "geometry": { "type": "Point", "coordinates": [ 110.409192725492701, -7.017891386259032 ] } },
{ "type": "Feature", "properties": { "full_id": "w339310742", "osm_id": "339310742", "osm_type": "way", "amenity": "hospital", "operator_t": "private", "operator": null, "healthcare": null, "emergency": null, "addr_stree": null, "addr_postc": null, "addr_city": "Kota Semarang", "name": "Rumah sakit Ibu Anak Bunda", "healthca_1": null, "barrier": null, "access": null, "addr_provi": null, "alt_name": null, "wikidata": null, "ground_flo": null, "name_etymo": null, "name_ety_1": null, "official_n": null, "capacity_p": null, "building_s": null, "building_r": null, "building_m": null, "building_l": null, "building_f": null, "building_c": null, "building": "hospital", "backup_gen": null, "access_roo": null, "wheelchair": null, "website": "https://www.bundasemarang.co.id/", "url": null, "opening_ho": null, "insurance_": null, "health_ame": null, "contact_ph": null, "addr_house": null, "addr_full": "Gayamsari, Jalan Brigjend Katamso No.8, Karangturi, Kecamatan Semarang Timur, Kota Semarang, Jawa Tengah 50125", "layer": "rs 2", "path": "D:/OSIG ASIK/Reproject/rs 2.shp", "id": "RS10" }, "geometry": { "type": "Point", "coordinates": [ 110.433229986628092, -6.994472020394338 ] } },
{ "type": "Feature", "properties": { "full_id": "w339610690", "osm_id": "339610690", "osm_type": "way", "amenity": "hospital", "operator_t": null, "operator": null, "healthcare": null, "emergency": null, "addr_stree": null, "addr_postc": null, "addr_city": null, "name": "Siloam Hospitals Semarang", "healthca_1": "hospital", "barrier": null, "access": null, "addr_provi": null, "alt_name": null, "wikidata": null, "ground_flo": null, "name_etymo": null, "name_ety_1": null, "official_n": null, "capacity_p": null, "building_s": null, "building_r": null, "building_m": null, "building_l": null, "building_f": null, "building_c": null, "building": "yes", "backup_gen": null, "access_roo": null, "wheelchair": null, "website": null, "url": null, "opening_ho": null, "insurance_": null, "health_ame": null, "contact_ph": null, "addr_house": null, "addr_full": null, "layer": "rs 2", "path": "D:/OSIG ASIK/Reproject/rs 2.shp", "id": "RS11" }, "geometry": { "type": "Point", "coordinates": [ 110.43401065, -6.9990425 ] } },
{ "type": "Feature", "properties": { "full_id": "w342703219", "osm_id": "342703219", "osm_type": "way", "amenity": "hospital", "operator_t": "government", "operator": null, "healthcare": null, "emergency": null, "addr_stree": null, "addr_postc": null, "addr_city": "Semarang", "name": "Balai Kesehatan Masyarakat Wilayah Semarang", "healthca_1": null, "barrier": null, "access": null, "addr_provi": null, "alt_name": null, "wikidata": null, "ground_flo": null, "name_etymo": null, "name_ety_1": null, "official_n": null, "capacity_p": null, "building_s": null, "building_r": null, "building_m": null, "building_l": null, "building_f": null, "building_c": null, "building": null, "backup_gen": null, "access_roo": null, "wheelchair": null, "website": null, "url": null, "opening_ho": null, "insurance_": null, "health_ame": null, "contact_ph": null, "addr_house": null, "addr_full": "Jalan KH Ahmad Dalam No 39", "layer": "rs 2", "path": "D:/OSIG ASIK/Reproject/rs 2.shp", "id": "RS12" }, "geometry": { "type": "Point", "coordinates": [ 110.427784190373472, -6.987803831542261 ] } },
{ "type": "Feature", "properties": { "full_id": "w342725905", "osm_id": "342725905", "osm_type": "way", "amenity": "hospital", "operator_t": null, "operator": null, "healthcare": null, "emergency": null, "addr_stree": null, "addr_postc": null, "addr_city": null, "name": "Sahana Medika KH Ahmad Dahlan", "healthca_1": "hospital", "barrier": null, "access": null, "addr_provi": null, "alt_name": null, "wikidata": null, "ground_flo": null, "name_etymo": "id:Ahmad Dahlan", "name_ety_1": "Q4695300", "official_n": null, "capacity_p": null, "building_s": null, "building_r": null, "building_m": null, "building_l": null, "building_f": null, "building_c": null, "building": "yes", "backup_gen": null, "access_roo": null, "wheelchair": null, "website": null, "url": null, "opening_ho": null, "insurance_": null, "health_ame": null, "contact_ph": null, "addr_house": null, "addr_full": null, "layer": "rs 2", "path": "D:/OSIG ASIK/Reproject/rs 2.shp", "id": "RS13" }, "geometry": { "type": "Point", "coordinates": [ 110.425763, -6.9887072 ] } },
{ "type": "Feature", "properties": { "full_id": "w413780075", "osm_id": "413780075", "osm_type": "way", "amenity": "hospital", "operator_t": null, "operator": null, "healthcare": null, "emergency": null, "addr_stree": null, "addr_postc": null, "addr_city": null, "name": "RSUP Dr Kariyadi", "healthca_1": "hospital", "barrier": null, "access": null, "addr_provi": null, "alt_name": null, "wikidata": null, "ground_flo": null, "name_etymo": null, "name_ety_1": null, "official_n": null, "capacity_p": null, "building_s": null, "building_r": null, "building_m": null, "building_l": null, "building_f": null, "building_c": null, "building": null, "backup_gen": null, "access_roo": null, "wheelchair": null, "website": null, "url": null, "opening_ho": null, "insurance_": null, "health_ame": null, "contact_ph": null, "addr_house": null, "addr_full": null, "layer": "rs 2", "path": "D:/OSIG ASIK/Reproject/rs 2.shp", "id": "RS14" }, "geometry": { "type": "Point", "coordinates": [ 110.407661249141441, -6.99255838274923 ] } },
{ "type": "Feature", "properties": { "full_id": "w505681200", "osm_id": "505681200", "osm_type": "way", "amenity": "hospital", "operator_t": "private", "operator": null, "healthcare": null, "emergency": null, "addr_stree": null, "addr_postc": null, "addr_city": "Semarang", "name": "Rumah Sakit Permata Sari", "healthca_1": null, "barrier": null, "access": null, "addr_provi": null, "alt_name": null, "wikidata": null, "ground_flo": null, "name_etymo": null, "name_ety_1": null, "official_n": null, "capacity_p": "250-500", "building_s": "confined_masonry", "building_r": "tile", "building_m": "brick", "building_l": "1", "building_f": "ceramics", "building_c": "good", "building": "hospital", "backup_gen": "no", "access_roo": "no", "wheelchair": null, "website": null, "url": null, "opening_ho": null, "insurance_": null, "health_ame": null, "contact_ph": null, "addr_house": null, "addr_full": "Jalan Kolonel RW Soegiarto", "layer": "rs 2", "path": "D:/OSIG ASIK/Reproject/rs 2.shp", "id": "RS15" }, "geometry": { "type": "Point", "coordinates": [ 110.37397867607244, -7.021092405674494 ] } },
{ "type": "Feature", "properties": { "full_id": "w558679092", "osm_id": "558679092", "osm_type": "way", "amenity": "hospital", "operator_t": "private", "operator": null, "healthcare": null, "emergency": null, "addr_stree": null, "addr_postc": null, "addr_city": "Semarang", "name": "RSIA Gunung Sawo", "healthca_1": "hospital", "barrier": null, "access": null, "addr_provi": null, "alt_name": null, "wikidata": null, "ground_flo": "0.3", "name_etymo": null, "name_ety_1": null, "official_n": null, "capacity_p": "250-500", "building_s": "confined_masonry", "building_r": "tile", "building_m": "concrete", "building_l": "2", "building_f": "ceramics", "building_c": "good", "building": "hospital", "backup_gen": "yes", "access_roo": "no", "wheelchair": null, "website": null, "url": null, "opening_ho": null, "insurance_": null, "health_ame": null, "contact_ph": null, "addr_house": null, "addr_full": "Jalan Gunung Sawo", "layer": "rs 2", "path": "D:/OSIG ASIK/Reproject/rs 2.shp", "id": "RS16" }, "geometry": { "type": "Point", "coordinates": [ 110.406789395754771, -6.996127276082164 ] } },
{ "type": "Feature", "properties": { "full_id": "w562415481", "osm_id": "562415481", "osm_type": "way", "amenity": "hospital", "operator_t": "government", "operator": null, "healthcare": null, "emergency": null, "addr_stree": null, "addr_postc": null, "addr_city": "Semarang", "name": "Rumah Sakit Bhakti Wira Tamtama", "healthca_1": "hospital", "barrier": null, "access": null, "addr_provi": null, "alt_name": null, "wikidata": null, "ground_flo": null, "name_etymo": null, "name_ety_1": null, "official_n": null, "capacity_p": null, "building_s": null, "building_r": null, "building_m": null, "building_l": null, "building_f": null, "building_c": null, "building": null, "backup_gen": null, "access_roo": null, "wheelchair": null, "website": null, "url": null, "opening_ho": null, "insurance_": null, "health_ame": null, "contact_ph": null, "addr_house": null, "addr_full": "Jalan Dr Sutomo No 17", "layer": "rs 2", "path": "D:/OSIG ASIK/Reproject/rs 2.shp", "id": "RS17" }, "geometry": { "type": "Point", "coordinates": [ 110.4077000016607, -6.986954758001636 ] } },
{ "type": "Feature", "properties": { "full_id": "w562415487", "osm_id": "562415487", "osm_type": "way", "amenity": "hospital", "operator_t": "private", "operator": null, "healthcare": null, "emergency": null, "addr_stree": null, "addr_postc": null, "addr_city": "Semarang", "name": "Rumah Sakit Ibu Anak Anugerah", "healthca_1": "hospital", "barrier": null, "access": null, "addr_provi": null, "alt_name": null, "wikidata": null, "ground_flo": null, "name_etymo": null, "name_ety_1": null, "official_n": null, "capacity_p": null, "building_s": null, "building_r": null, "building_m": null, "building_l": null, "building_f": null, "building_c": null, "building": null, "backup_gen": null, "access_roo": null, "wheelchair": null, "website": null, "url": null, "opening_ho": null, "insurance_": null, "health_ame": null, "contact_ph": null, "addr_house": null, "addr_full": "Jalan Kalisari Baru no 2", "layer": "rs 2", "path": "D:/OSIG ASIK/Reproject/rs 2.shp", "id": "RS18" }, "geometry": { "type": "Point", "coordinates": [ 110.405030067095822, -6.992342054631893 ] } },
{ "type": "Feature", "properties": { "full_id": "w563309776", "osm_id": "563309776", "osm_type": "way", "amenity": "hospital", "operator_t": "private", "operator": "government", "healthcare": null, "emergency": null, "addr_stree": "Jalan S. Parman No. 5", "addr_postc": "50237", "addr_city": "Semarang", "name": "Rumah Sakit Umum William Booth", "healthca_1": "hospital", "barrier": null, "access": null, "addr_provi": null, "alt_name": null, "wikidata": null, "ground_flo": null, "name_etymo": null, "name_ety_1": null, "official_n": null, "capacity_p": null, "building_s": null, "building_r": null, "building_m": null, "building_l": null, "building_f": null, "building_c": null, "building": null, "backup_gen": null, "access_roo": null, "wheelchair": null, "website": null, "url": "https://rsuwilliambooth.com/", "opening_ho": null, "insurance_": null, "health_ame": null, "contact_ph": "+62 24-8411800", "addr_house": "5", "addr_full": "Jalan Letjen S. Parman", "layer": "rs 2", "path": "D:/OSIG ASIK/Reproject/rs 2.shp", "id": "RS19" }, "geometry": { "type": "Point", "coordinates": [ 110.404982677700701, -6.997166732983576 ] } },
{ "type": "Feature", "properties": { "full_id": "w563523487", "osm_id": "563523487", "osm_type": "way", "amenity": "hospital", "operator_t": "government", "operator": null, "healthcare": null, "emergency": null, "addr_stree": null, "addr_postc": null, "addr_city": "Semarang", "name": "Rumah Sakit Bhayangkara", "healthca_1": null, "barrier": null, "access": null, "addr_provi": null, "alt_name": null, "wikidata": null, "ground_flo": null, "name_etymo": null, "name_ety_1": null, "official_n": null, "capacity_p": null, "building_s": null, "building_r": null, "building_m": null, "building_l": null, "building_f": null, "building_c": null, "building": null, "backup_gen": null, "access_roo": null, "wheelchair": null, "website": null, "url": null, "opening_ho": null, "insurance_": null, "health_ame": null, "contact_ph": null, "addr_house": null, "addr_full": "Jalan Majapahit Nomor 140", "layer": "rs 2", "path": "D:/OSIG ASIK/Reproject/rs 2.shp", "id": "RS20" }, "geometry": { "type": "Point", "coordinates": [ 110.446613035785376, -7.000259944199821 ] } },
{ "type": "Feature", "properties": { "full_id": "w564178325", "osm_id": "564178325", "osm_type": "way", "amenity": "hospital", "operator_t": "private", "operator": null, "healthcare": null, "emergency": null, "addr_stree": null, "addr_postc": null, "addr_city": "Semarang", "name": "RS Ibu dan Anak Kusuma Pradja", "healthca_1": "hospital", "barrier": null, "access": null, "addr_provi": null, "alt_name": null, "wikidata": null, "ground_flo": null, "name_etymo": null, "name_ety_1": null, "official_n": null, "capacity_p": "100-250", "building_s": null, "building_r": null, "building_m": null, "building_l": null, "building_f": null, "building_c": null, "building": null, "backup_gen": null, "access_roo": null, "wheelchair": null, "website": null, "url": null, "opening_ho": null, "insurance_": null, "health_ame": null, "contact_ph": null, "addr_house": null, "addr_full": "Jalan Bugangan Raya", "layer": "rs 2", "path": "D:/OSIG ASIK/Reproject/rs 2.shp", "id": "RS21" }, "geometry": { "type": "Point", "coordinates": [ 110.435645485967541, -6.97609777535637 ] } },
{ "type": "Feature", "properties": { "full_id": "w564915182", "osm_id": "564915182", "osm_type": "way", "amenity": "hospital", "operator_t": "private", "operator": null, "healthcare": null, "emergency": null, "addr_stree": null, "addr_postc": null, "addr_city": "Semarang", "name": "Rumah Sakit Panti Wilasa", "healthca_1": "hospital", "barrier": null, "access": null, "addr_provi": null, "alt_name": null, "wikidata": null, "ground_flo": null, "name_etymo": null, "name_ety_1": null, "official_n": null, "capacity_p": ">500", "building_s": null, "building_r": null, "building_m": null, "building_l": null, "building_f": null, "building_c": null, "building": null, "backup_gen": "yes", "access_roo": "yes", "wheelchair": null, "website": "https://pantiwilasa.com/", "url": null, "opening_ho": null, "insurance_": null, "health_ame": null, "contact_ph": null, "addr_house": null, "addr_full": "Jalan Dr. Cipto no. 50 Semarang", "layer": "rs 2", "path": "D:/OSIG ASIK/Reproject/rs 2.shp", "id": "RS22" }, "geometry": { "type": "Point", "coordinates": [ 110.434918418353774, -6.972973531860345 ] } },
{ "type": "Feature", "properties": { "full_id": "w564994060", "osm_id": "564994060", "osm_type": "way", "amenity": "hospital", "operator_t": "private", "operator": null, "healthcare": null, "emergency": null, "addr_stree": null, "addr_postc": null, "addr_city": "Semarang", "name": "RS St.Elisabeth Semarang", "healthca_1": "hospital", "barrier": null, "access": null, "addr_provi": null, "alt_name": null, "wikidata": "Q137554793", "ground_flo": null, "name_etymo": null, "name_ety_1": null, "official_n": null, "capacity_p": null, "building_s": null, "building_r": null, "building_m": null, "building_l": null, "building_f": null, "building_c": null, "building": null, "backup_gen": null, "access_roo": null, "wheelchair": null, "website": null, "url": null, "opening_ho": null, "insurance_": null, "health_ame": null, "contact_ph": null, "addr_house": null, "addr_full": "Jalan Kawi", "layer": "rs 2", "path": "D:/OSIG ASIK/Reproject/rs 2.shp", "id": "RS23" }, "geometry": { "type": "Point", "coordinates": [ 110.419795421773912, -7.007740075625923 ] } },
{ "type": "Feature", "properties": { "full_id": "w565664900", "osm_id": "565664900", "osm_type": "way", "amenity": "hospital", "operator_t": "private", "operator": null, "healthcare": null, "emergency": null, "addr_stree": null, "addr_postc": null, "addr_city": "Semarang", "name": "Rumah Sakit Roemani Muhammadiyah", "healthca_1": null, "barrier": null, "access": null, "addr_provi": null, "alt_name": null, "wikidata": null, "ground_flo": null, "name_etymo": null, "name_ety_1": null, "official_n": null, "capacity_p": null, "building_s": null, "building_r": null, "building_m": null, "building_l": null, "building_f": null, "building_c": null, "building": null, "backup_gen": null, "access_roo": null, "wheelchair": null, "website": null, "url": null, "opening_ho": null, "insurance_": null, "health_ame": null, "contact_ph": null, "addr_house": null, "addr_full": "Jalan Wonodri Baru Raya No.22, Wonodri, Kec. Semarang Sel., Kota Semarang, Jawa Tengah 50242", "layer": "rs 2", "path": "D:/OSIG ASIK/Reproject/rs 2.shp", "id": "RS24" }, "geometry": { "type": "Point", "coordinates": [ 110.428247944630755, -7.001196289774291 ] } },
{ "type": "Feature", "properties": { "full_id": "w567236108", "osm_id": "567236108", "osm_type": "way", "amenity": "hospital", "operator_t": "private", "operator": null, "healthcare": null, "emergency": null, "addr_stree": null, "addr_postc": null, "addr_city": "Semarang", "name": "Rumah Sakit Panti Wilasa Citarum", "healthca_1": "hospital", "barrier": null, "access": null, "addr_provi": null, "alt_name": null, "wikidata": null, "ground_flo": null, "name_etymo": null, "name_ety_1": null, "official_n": null, "capacity_p": null, "building_s": null, "building_r": null, "building_m": null, "building_l": null, "building_f": null, "building_c": null, "building": null, "backup_gen": null, "access_roo": null, "wheelchair": null, "website": "http://www.pantiwilasa-citarum.co.id/WEB-PWC/OPT-03/SU_HOME/index.php", "url": null, "opening_ho": null, "insurance_": null, "health_ame": null, "contact_ph": null, "addr_house": null, "addr_full": "Jalan Citarum No.98, Mlatiharjo, Kec. Semarang Tim., Kota Semarang, Jawa Tengah", "layer": "rs 2", "path": "D:/OSIG ASIK/Reproject/rs 2.shp", "id": "RS25" }, "geometry": { "type": "Point", "coordinates": [ 110.439789603244733, -6.969946397701906 ] } },
{ "type": "Feature", "properties": { "full_id": "w568028662", "osm_id": "568028662", "osm_type": "way", "amenity": "hospital", "operator_t": "private", "operator": null, "healthcare": null, "emergency": null, "addr_stree": null, "addr_postc": null, "addr_city": "Semarang", "name": "Rumah Bersalin Bhakti Ibu", "healthca_1": null, "barrier": null, "access": null, "addr_provi": null, "alt_name": null, "wikidata": null, "ground_flo": null, "name_etymo": null, "name_ety_1": null, "official_n": null, "capacity_p": null, "building_s": null, "building_r": null, "building_m": null, "building_l": null, "building_f": null, "building_c": null, "building": null, "backup_gen": null, "access_roo": null, "wheelchair": null, "website": null, "url": null, "opening_ho": null, "insurance_": null, "health_ame": null, "contact_ph": null, "addr_house": null, "addr_full": "Jalan Jeruk VII", "layer": "rs 2", "path": "D:/OSIG ASIK/Reproject/rs 2.shp", "id": "RS26" }, "geometry": { "type": "Point", "coordinates": [ 110.439918169274165, -7.004780360692966 ] } },
{ "type": "Feature", "properties": { "full_id": "w571853325", "osm_id": "571853325", "osm_type": "way", "amenity": "hospital", "operator_t": null, "operator": null, "healthcare": null, "emergency": null, "addr_stree": null, "addr_postc": null, "addr_city": null, "name": "Rumah Bersalin Citra Insani", "healthca_1": "hospital", "barrier": null, "access": null, "addr_provi": null, "alt_name": null, "wikidata": null, "ground_flo": null, "name_etymo": null, "name_ety_1": null, "official_n": null, "capacity_p": null, "building_s": null, "building_r": null, "building_m": null, "building_l": null, "building_f": null, "building_c": null, "building": "yes", "backup_gen": null, "access_roo": null, "wheelchair": null, "website": null, "url": null, "opening_ho": null, "insurance_": null, "health_ame": null, "contact_ph": null, "addr_house": null, "addr_full": null, "layer": "rs 2", "path": "D:/OSIG ASIK/Reproject/rs 2.shp", "id": "RS27" }, "geometry": { "type": "Point", "coordinates": [ 110.459305683389104, -7.003907199164566 ] } },
{ "type": "Feature", "properties": { "full_id": "w573422707", "osm_id": "573422707", "osm_type": "way", "amenity": "hospital", "operator_t": "private", "operator": null, "healthcare": null, "emergency": null, "addr_stree": null, "addr_postc": "50275", "addr_city": "Semarang", "name": "Rumah Sakit Nasional Diponegoro", "healthca_1": "hospital", "barrier": null, "access": null, "addr_provi": null, "alt_name": null, "wikidata": null, "ground_flo": null, "name_etymo": "id:Diponegoro", "name_ety_1": "Q28899", "official_n": null, "capacity_p": null, "building_s": null, "building_r": null, "building_m": null, "building_l": null, "building_f": null, "building_c": null, "building": null, "backup_gen": null, "access_roo": null, "wheelchair": null, "website": null, "url": null, "opening_ho": "24/7", "insurance_": null, "health_ame": null, "contact_ph": "+62 24-76928020", "addr_house": null, "addr_full": null, "layer": "rs 2", "path": "D:/OSIG ASIK/Reproject/rs 2.shp", "id": "RS28" }, "geometry": { "type": "Point", "coordinates": [ 110.443595168070686, -7.0477053956556 ] } },
{ "type": "Feature", "properties": { "full_id": "w576141465", "osm_id": "576141465", "osm_type": "way", "amenity": "hospital", "operator_t": "government", "operator": null, "healthcare": null, "emergency": null, "addr_stree": null, "addr_postc": null, "addr_city": "Semarang", "name": "Rumah Sakit Jiwa Dr Amino Gondhoutomo", "healthca_1": "hospital", "barrier": null, "access": null, "addr_provi": null, "alt_name": null, "wikidata": null, "ground_flo": null, "name_etymo": null, "name_ety_1": null, "official_n": null, "capacity_p": ">500", "building_s": null, "building_r": null, "building_m": null, "building_l": null, "building_f": null, "building_c": null, "building": null, "backup_gen": "no", "access_roo": null, "wheelchair": null, "website": null, "url": null, "opening_ho": null, "insurance_": null, "health_ame": null, "contact_ph": null, "addr_house": null, "addr_full": "Jalan Brigjend S sudiarto", "layer": "rs 2", "path": "D:/OSIG ASIK/Reproject/rs 2.shp", "id": "RS29" }, "geometry": { "type": "Point", "coordinates": [ 110.463090749366586, -7.010142791776814 ] } },
{ "type": "Feature", "properties": { "full_id": "w576599492", "osm_id": "576599492", "osm_type": "way", "amenity": "hospital", "operator_t": "private", "operator": null, "healthcare": null, "emergency": null, "addr_stree": null, "addr_postc": null, "addr_city": "Semarang", "name": "Rumah Sakit Hermina Banyumanik", "healthca_1": null, "barrier": null, "access": null, "addr_provi": null, "alt_name": null, "wikidata": null, "ground_flo": null, "name_etymo": null, "name_ety_1": null, "official_n": null, "capacity_p": ">500", "building_s": "confined_masonry", "building_r": "concrete", "building_m": "concrete", "building_l": "4", "building_f": "ceramics", "building_c": "good", "building": "hospital", "backup_gen": "yes", "access_roo": "yes", "wheelchair": null, "website": null, "url": null, "opening_ho": null, "insurance_": null, "health_ame": null, "contact_ph": null, "addr_house": null, "addr_full": "Jalan Setiabudi", "layer": "rs 2", "path": "D:/OSIG ASIK/Reproject/rs 2.shp", "id": "RS30" }, "geometry": { "type": "Point", "coordinates": [ 110.411771555952669, -7.072701205912415 ] } },
{ "type": "Feature", "properties": { "full_id": "w579157522", "osm_id": "579157522", "osm_type": "way", "amenity": "hospital", "operator_t": "private", "operator": null, "healthcare": null, "emergency": null, "addr_stree": null, "addr_postc": null, "addr_city": "Semarang", "name": "Rumah Sakit Amanda", "healthca_1": "hospital", "barrier": null, "access": null, "addr_provi": null, "alt_name": null, "wikidata": null, "ground_flo": null, "name_etymo": null, "name_ety_1": null, "official_n": null, "capacity_p": "250-500", "building_s": "confined_masonry", "building_r": "asbestos", "building_m": "brick", "building_l": "2", "building_f": "ceramics", "building_c": "good", "building": "hospital", "backup_gen": "yes", "access_roo": "no", "wheelchair": null, "website": null, "url": null, "opening_ho": null, "insurance_": null, "health_ame": null, "contact_ph": null, "addr_house": null, "addr_full": "Jalan Bandungsari", "layer": "rs 2", "path": "D:/OSIG ASIK/Reproject/rs 2.shp", "id": "RS31" }, "geometry": { "type": "Point", "coordinates": [ 110.316300580327677, -7.068408621887318 ] } },
{ "type": "Feature", "properties": { "full_id": "w579197116", "osm_id": "579197116", "osm_type": "way", "amenity": "hospital", "operator_t": "government", "operator": null, "healthcare": "general", "emergency": "yes", "addr_stree": null, "addr_postc": null, "addr_city": "Semarang", "name": "Rumah Sakit Umum Daerah K.R.M.T. Wongsenogoro", "healthca_1": "hospital", "barrier": null, "access": null, "addr_provi": null, "alt_name": null, "wikidata": null, "ground_flo": null, "name_etymo": null, "name_ety_1": null, "official_n": null, "capacity_p": null, "building_s": null, "building_r": null, "building_m": null, "building_l": null, "building_f": null, "building_c": null, "building": null, "backup_gen": null, "access_roo": null, "wheelchair": null, "website": null, "url": null, "opening_ho": null, "insurance_": null, "health_ame": null, "contact_ph": null, "addr_house": null, "addr_full": "Jalan Fatmawati No. 1", "layer": "rs 2", "path": "D:/OSIG ASIK/Reproject/rs 2.shp", "id": "RS32" }, "geometry": { "type": "Point", "coordinates": [ 110.465972066380189, -7.033923208715358 ] } },
{ "type": "Feature", "properties": { "full_id": "w580708912", "osm_id": "580708912", "osm_type": "way", "amenity": "hospital", "operator_t": "government", "operator": null, "healthcare": null, "emergency": null, "addr_stree": null, "addr_postc": null, "addr_city": "Semarang", "name": "Rumah Sakit Banyumanik", "healthca_1": null, "barrier": null, "access": null, "addr_provi": null, "alt_name": null, "wikidata": null, "ground_flo": null, "name_etymo": null, "name_ety_1": null, "official_n": null, "capacity_p": "250-500", "building_s": "confined_masonry", "building_r": "concrete", "building_m": "brick", "building_l": "2", "building_f": "ceramics", "building_c": "good", "building": "hospital", "backup_gen": "yes", "access_roo": "yes", "wheelchair": null, "website": null, "url": null, "opening_ho": null, "insurance_": null, "health_ame": null, "contact_ph": null, "addr_house": null, "addr_full": "Jalan Durian Selatan", "layer": "rs 2", "path": "D:/OSIG ASIK/Reproject/rs 2.shp", "id": "RS33" }, "geometry": { "type": "Point", "coordinates": [ 110.416498888161456, -7.063778966428697 ] } },
{ "type": "Feature", "properties": { "full_id": "w581873957", "osm_id": "581873957", "osm_type": "way", "amenity": "hospital", "operator_t": "private", "operator": null, "healthcare": null, "emergency": null, "addr_stree": null, "addr_postc": null, "addr_city": "Semarang", "name": "Rumah Sakit Permata Medika", "healthca_1": null, "barrier": null, "access": null, "addr_provi": null, "alt_name": null, "wikidata": null, "ground_flo": null, "name_etymo": null, "name_ety_1": null, "official_n": null, "capacity_p": null, "building_s": null, "building_r": null, "building_m": null, "building_l": null, "building_f": null, "building_c": null, "building": null, "backup_gen": null, "access_roo": null, "wheelchair": null, "website": null, "url": null, "opening_ho": null, "insurance_": null, "health_ame": null, "contact_ph": null, "addr_house": null, "addr_full": "Jalan Moch Ichsan No 93-97", "layer": "rs 2", "path": "D:/OSIG ASIK/Reproject/rs 2.shp", "id": "RS34" }, "geometry": { "type": "Point", "coordinates": [ 110.342202942558842, -7.00004189185786 ] } },
{ "type": "Feature", "properties": { "full_id": "w585619016", "osm_id": "585619016", "osm_type": "way", "amenity": "hospital", "operator_t": "government", "operator": "government", "healthcare": "emergency;biology", "emergency": "yes", "addr_stree": "Jalan Walisongo", "addr_postc": "50185", "addr_city": "Semarang", "name": "RSUD D Dr. Adhyatma, MPH", "healthca_1": "hospital", "barrier": null, "access": null, "addr_provi": null, "alt_name": "RSUD Tugurejo", "wikidata": "Q137554709", "ground_flo": null, "name_etymo": null, "name_ety_1": null, "official_n": null, "capacity_p": null, "building_s": null, "building_r": null, "building_m": null, "building_l": null, "building_f": null, "building_c": null, "building": null, "backup_gen": null, "access_roo": null, "wheelchair": null, "website": null, "url": null, "opening_ho": null, "insurance_": null, "health_ame": null, "contact_ph": null, "addr_house": "137", "addr_full": "Jalan Walisongo Km 8,5", "layer": "rs 2", "path": "D:/OSIG ASIK/Reproject/rs 2.shp", "id": "RS35" }, "geometry": { "type": "Point", "coordinates": [ 110.35550321040833, -6.984776623150695 ] } },
{ "type": "Feature", "properties": { "full_id": "w587381948", "osm_id": "587381948", "osm_type": "way", "amenity": "hospital", "operator_t": "private", "operator": null, "healthcare": null, "emergency": null, "addr_stree": null, "addr_postc": null, "addr_city": "Semarang", "name": "Rumah Sakit Gigi dan Mulut UNIMUS", "healthca_1": "hospital", "barrier": null, "access": null, "addr_provi": null, "alt_name": null, "wikidata": null, "ground_flo": null, "name_etymo": null, "name_ety_1": null, "official_n": null, "capacity_p": "250-500", "building_s": "confined_masonry", "building_r": "concrete", "building_m": "brick", "building_l": "4", "building_f": "ceramics", "building_c": "good", "building": "hospital", "backup_gen": null, "access_roo": "no", "wheelchair": null, "website": null, "url": null, "opening_ho": null, "insurance_": null, "health_ame": null, "contact_ph": null, "addr_house": null, "addr_full": "Jalan Kedungmundu Raya", "layer": "rs 2", "path": "D:/OSIG ASIK/Reproject/rs 2.shp", "id": "RS36" }, "geometry": { "type": "Point", "coordinates": [ 110.466170217516463, -7.025231161876894 ] } },
{ "type": "Feature", "properties": { "full_id": "w1273648205", "osm_id": "1273648205", "osm_type": "way", "amenity": "hospital", "operator_t": "government", "operator": null, "healthcare": null, "emergency": null, "addr_stree": null, "addr_postc": null, "addr_city": "Semarang", "name": "RSD KRMT Wongsonegoro", "healthca_1": "hospital", "barrier": null, "access": null, "addr_provi": null, "alt_name": null, "wikidata": null, "ground_flo": null, "name_etymo": null, "name_ety_1": null, "official_n": null, "capacity_p": ">500", "building_s": "confined_masonry", "building_r": "tile", "building_m": "brick", "building_l": "5", "building_f": "ceramics", "building_c": "good", "building": "hospital", "backup_gen": null, "access_roo": "no", "wheelchair": null, "website": null, "url": null, "opening_ho": null, "insurance_": null, "health_ame": null, "contact_ph": null, "addr_house": null, "addr_full": "Jalan Fatmawati No. 1", "layer": "rs 2", "path": "D:/OSIG ASIK/Reproject/rs 2.shp", "id": "RS37" }, "geometry": { "type": "Point", "coordinates": [ 110.466108389888376, -7.033166253402034 ] } },
{ "type": "Feature", "properties": { "full_id": "w1413859052", "osm_id": "1413859052", "osm_type": "way", "amenity": "hospital", "operator_t": "private", "operator": null, "healthcare": null, "emergency": null, "addr_stree": null, "addr_postc": null, "addr_city": "Semarang", "name": "Rumah Sakit Ibu dan Anak Plamongan Indah", "healthca_1": null, "barrier": null, "access": null, "addr_provi": null, "alt_name": null, "wikidata": null, "ground_flo": null, "name_etymo": null, "name_ety_1": null, "official_n": null, "capacity_p": "250-500", "building_s": "confined_masonry", "building_r": "tile", "building_m": "brick", "building_l": "2", "building_f": "ceramics", "building_c": "good", "building": "hospital", "backup_gen": "no", "access_roo": "no", "wheelchair": null, "website": null, "url": null, "opening_ho": null, "insurance_": null, "health_ame": null, "contact_ph": null, "addr_house": null, "addr_full": "Jalan Kelapa Gading Raya", "layer": "rs 2", "path": "D:/OSIG ASIK/Reproject/rs 2.shp", "id": "RS38" }, "geometry": { "type": "Point", "coordinates": [ 110.498070541008943, -7.023667095678388 ] } },
{ "type": "Feature", "properties": { "full_id": "w1428458233", "osm_id": "1428458233", "osm_type": "way", "amenity": "hospital", "operator_t": "private", "operator": null, "healthcare": null, "emergency": null, "addr_stree": null, "addr_postc": null, "addr_city": null, "name": "RSKB Columbia Asia", "healthca_1": "hospital", "barrier": null, "access": null, "addr_provi": null, "alt_name": null, "wikidata": "Q137554754", "ground_flo": null, "name_etymo": null, "name_ety_1": null, "official_n": "Rumah Sakit Khusus Bedah Columbia Asia", "capacity_p": null, "building_s": null, "building_r": null, "building_m": null, "building_l": null, "building_f": null, "building_c": null, "building": null, "backup_gen": null, "access_roo": null, "wheelchair": null, "website": "https://www.columbiaasia.com/indonesia/hospitals/semarang/overview", "url": null, "opening_ho": null, "insurance_": null, "health_ame": null, "contact_ph": null, "addr_house": null, "addr_full": null, "layer": "rs 2", "path": "D:/OSIG ASIK/Reproject/rs 2.shp", "id": "RS39" }, "geometry": { "type": "Point", "coordinates": [ 110.382441572622824, -6.983698955463604 ] } },
{ "type": "Feature", "properties": { "full_id": "w1455763488", "osm_id": "1455763488", "osm_type": "way", "amenity": "hospital", "operator_t": "private", "operator": null, "healthcare": null, "emergency": null, "addr_stree": "Jalan KH. Ahmad Dahlan", "addr_postc": null, "addr_city": "Semarang", "name": "SMC Rumah Sakit Telogorejo", "healthca_1": "hospital", "barrier": null, "access": null, "addr_provi": "Jawa Tengah", "alt_name": null, "wikidata": null, "ground_flo": null, "name_etymo": null, "name_ety_1": null, "official_n": null, "capacity_p": ">500", "building_s": null, "building_r": null, "building_m": null, "building_l": null, "building_f": null, "building_c": null, "building": null, "backup_gen": "yes", "access_roo": "yes", "wheelchair": null, "website": null, "url": null, "opening_ho": null, "insurance_": null, "health_ame": null, "contact_ph": null, "addr_house": null, "addr_full": "Jalan KH.Ahmad Dahlan No.1", "layer": "rs 2", "path": "D:/OSIG ASIK/Reproject/rs 2.shp", "id": "RS40" }, "geometry": { "type": "Point", "coordinates": [ 110.426606106409821, -6.987400369147649 ] } }
]
}
